CCSDS_OMM_VERS = 2.0
CREATION_DATE  = 
ORIGINATOR     = 

OBJECT_NAME    = CORAL
OBJECT_ID      = 1998-067YA
CENTER_NAME    = EARTH
REF_FRAME      = TEME
TIME_SYSTEM    = UTC
MEAN_ELEMENT_THEORY = SGP/SGP4

EPOCH          = 2026-04-04T19:55:27.772320
MEAN_MOTION    = 15.59172561
ECCENTRICITY   = .0013624
INCLINATION    = 51.6290
RA_OF_ASC_NODE = 300.7162
ARG_OF_PERICENTER = 272.7085
MEAN_ANOMALY   = 87.2349

EPHEMERIS_TYPE = 0
CLASSIFICATION_TYPE = U
NORAD_CAT_ID   = 67684
ELEMENT_SET_NO = 999
REV_AT_EPOCH   = 886
BSTAR          = .11615E-2
MEAN_MOTION_DOT = .93721E-3
MEAN_MOTION_DDOT = 0

CCSDS_OMM_VERS = 2.0
CREATION_DATE  = 
ORIGINATOR     = 

OBJECT_NAME    = GXIBA-1
OBJECT_ID      = 1998-067YB
CENTER_NAME    = EARTH
REF_FRAME      = TEME
TIME_SYSTEM    = UTC
MEAN_ELEMENT_THEORY = SGP/SGP4

EPOCH          = 2026-04-04T18:39:38.477952
MEAN_MOTION    = 15.54782829
ECCENTRICITY   = .0012502
INCLINATION    = 51.6301
RA_OF_ASC_NODE = 301.8662
ARG_OF_PERICENTER = 279.3255
MEAN_ANOMALY   = 80.6322

EPHEMERIS_TYPE = 0
CLASSIFICATION_TYPE = U
NORAD_CAT_ID   = 67685
ELEMENT_SET_NO = 999
REV_AT_EPOCH   = 884
BSTAR          = .83058E-3
MEAN_MOTION_DOT = .56407E-3
MEAN_MOTION_DDOT = 0

CCSDS_OMM_VERS = 2.0
CREATION_DATE  = 
ORIGINATOR     = 

OBJECT_NAME    = UITMSAT-2
OBJECT_ID      = 1998-067YC
CENTER_NAME    = EARTH
REF_FRAME      = TEME
TIME_SYSTEM    = UTC
MEAN_ELEMENT_THEORY = SGP/SGP4

EPOCH          = 2026-04-04T19:44:22.850016
MEAN_MOTION    = 15.55936506
ECCENTRICITY   = .0009548
INCLINATION    = 51.6303
RA_OF_ASC_NODE = 301.4182
ARG_OF_PERICENTER = 253.7696
MEAN_ANOMALY   = 106.2245

EPHEMERIS_TYPE = 0
CLASSIFICATION_TYPE = U
NORAD_CAT_ID   = 67686
ELEMENT_SET_NO = 999
REV_AT_EPOCH   = 885
BSTAR          = .81491E-3
MEAN_MOTION_DOT = .57681E-3
MEAN_MOTION_DDOT = 0

CCSDS_OMM_VERS = 2.0
CREATION_DATE  = 
ORIGINATOR     = 

OBJECT_NAME    = HMU-SAT2
OBJECT_ID      = 1998-067YD
CENTER_NAME    = EARTH
REF_FRAME      = TEME
TIME_SYSTEM    = UTC
MEAN_ELEMENT_THEORY = SGP/SGP4

EPOCH          = 2026-04-04T18:48:25.578432
MEAN_MOTION    = 15.54504888
ECCENTRICITY   = .0009085
INCLINATION    = 51.6310
RA_OF_ASC_NODE = 301.9093
ARG_OF_PERICENTER = 256.2021
MEAN_ANOMALY   = 103.7959

EPHEMERIS_TYPE = 0
CLASSIFICATION_TYPE = U
NORAD_CAT_ID   = 67687
ELEMENT_SET_NO = 999
REV_AT_EPOCH   = 876
BSTAR          = .80536E-3
MEAN_MOTION_DOT = .54021E-3
MEAN_MOTION_DDOT = 0

CCSDS_OMM_VERS = 2.0
CREATION_DATE  = 
ORIGINATOR     = 

OBJECT_NAME    = LEOPARD
OBJECT_ID      = 1998-067YE
CENTER_NAME    = EARTH
REF_FRAME      = TEME
TIME_SYSTEM    = UTC
MEAN_ELEMENT_THEORY = SGP/SGP4

EPOCH          = 2026-04-04T19:57:03.739392
MEAN_MOTION    = 15.55413317
ECCENTRICITY   = .0009245
INCLINATION    = 51.6311
RA_OF_ASC_NODE = 301.4769
ARG_OF_PERICENTER = 254.0354
MEAN_ANOMALY   = 105.9619

EPHEMERIS_TYPE = 0
CLASSIFICATION_TYPE = U
NORAD_CAT_ID   = 67688
ELEMENT_SET_NO = 999
REV_AT_EPOCH   = 877
BSTAR          = .77371E-3
MEAN_MOTION_DOT = .53651E-3
MEAN_MOTION_DDOT = 0

CCSDS_OMM_VERS = 2.0
CREATION_DATE  = 
ORIGINATOR     = 

OBJECT_NAME    = CREW DRAGON 12
OBJECT_ID      = 2026-031A
CENTER_NAME    = EARTH
REF_FRAME      = TEME
TIME_SYSTEM    = UTC
MEAN_ELEMENT_THEORY = SGP/SGP4

EPOCH          = 2026-04-04T20:14:42.961056
MEAN_MOTION    = 15.48773610
ECCENTRICITY   = .0006326
INCLINATION    = 51.6331
RA_OF_ASC_NODE = 303.0545
ARG_OF_PERICENTER = 272.5089
MEAN_ANOMALY   = 87.5175

EPHEMERIS_TYPE = 0
CLASSIFICATION_TYPE = U
NORAD_CAT_ID   = 67796
ELEMENT_SET_NO = 999
REV_AT_EPOCH   = 56035
BSTAR          = .17936E-3
MEAN_MOTION_DOT = .937E-4
MEAN_MOTION_DDOT = 0

CCSDS_OMM_VERS = 2.0
CREATION_DATE  = 
ORIGINATOR     = 

OBJECT_NAME    = PROGRESS-MS 33
OBJECT_ID      = 2026-058A
CENTER_NAME    = EARTH
REF_FRAME      = TEME
TIME_SYSTEM    = UTC
MEAN_ELEMENT_THEORY = SGP/SGP4

EPOCH          = 2026-04-04T20:14:42.961056
MEAN_MOTION    = 15.48773610
ECCENTRICITY   = .0006326
INCLINATION    = 51.6331
RA_OF_ASC_NODE = 303.0545
ARG_OF_PERICENTER = 272.5089
MEAN_ANOMALY   = 87.5175

EPHEMERIS_TYPE = 0
CLASSIFICATION_TYPE = U
NORAD_CAT_ID   = 68319
ELEMENT_SET_NO = 999
REV_AT_EPOCH   = 186
BSTAR          = .17936E-3
MEAN_MOTION_DOT = .937E-4
MEAN_MOTION_DDOT = 0

